HST                     
1 20580U 90037B   26058.24111410  .00008127  00000+0  26999-3 0  9994
2 20580  28.4695 111.2668 0001390  17.2349 342.8294 15.29292719771717
